[{"OBJECT_NAME":"HELIOS 1B","OBJECT_ID":"1999-064A","EPOCH":"2026-04-16T05:49:04.639584","MEAN_MOTION":14.87838545,"ECCENTRICITY":7.762e-5,"INCLINATION":98.1658,"RA_OF_ASC_NODE":9.5838,"ARG_OF_PERICENTER":39.4795,"MEAN_ANOMALY":320.6477,"EPHEMERIS_TYPE":0,"CLASSIFICATION_TYPE":"U","NORAD_CAT_ID":25977,"ELEMENT_SET_NO":999,"REV_AT_EPOCH":69084,"BSTAR":9.4909145e-5,"MEAN_MOTION_DOT":8.09e-6,"MEAN_MOTION_DDOT":0},{"OBJECT_NAME":"TERRA","OBJECT_ID":"1999-068A","EPOCH":"2026-04-16T05:55:28.706592","MEAN_MOTION":14.61053523,"ECCENTRICITY":0.00035579,"INCLINATION":97.9518,"RA_OF_ASC_NODE":158.2321,"ARG_OF_PERICENTER":75.8381,"MEAN_ANOMALY":353.3655,"EPHEMERIS_TYPE":0,"CLASSIFICATION_TYPE":"U","NORAD_CAT_ID":25994,"ELEMENT_SET_NO":999,"REV_AT_EPOCH":40056,"BSTAR":5.5415436e-5,"MEAN_MOTION_DOT":2.28e-6,"MEAN_MOTION_DDOT":0},{"OBJECT_NAME":"SL-16 R/B","OBJECT_ID":"2000-006B","EPOCH":"2026-04-16T04:12:01.858464","MEAN_MOTION":14.15828885,"ECCENTRICITY":0.001474,"INCLINATION":71.0045,"RA_OF_ASC_NODE":19.0167,"ARG_OF_PERICENTER":129.771,"MEAN_ANOMALY":230.4714,"EPHEMERIS_TYPE":0,"CLASSIFICATION_TYPE":"U","NORAD_CAT_ID":26070,"ELEMENT_SET_NO":999,"REV_AT_EPOCH":35386,"BSTAR":-8.3915846e-5,"MEAN_MOTION_DOT":-2.13e-6,"MEAN_MOTION_DDOT":0},{"OBJECT_NAME":"TITAN 4B R/B","OBJECT_ID":"2000-047B","EPOCH":"2026-04-16T06:15:08.704224","MEAN_MOTION":15.09869384,"ECCENTRICITY":0.0041437,"INCLINATION":67.9868,"RA_OF_ASC_NODE":294.8361,"ARG_OF_PERICENTER":352.0404,"MEAN_ANOMALY":8.0082,"EPHEMERIS_TYPE":0,"CLASSIFICATION_TYPE":"U","NORAD_CAT_ID":26474,"ELEMENT_SET_NO":999,"REV_AT_EPOCH":39858,"BSTAR":0.00010378424,"MEAN_MOTION_DOT":1.577e-5,"MEAN_MOTION_DDOT":0},{"OBJECT_NAME":"ENVISAT","OBJECT_ID":"2002-009A","EPOCH":"2026-04-16T07:34:58.913760","MEAN_MOTION":14.39049682,"ECCENTRICITY":0.00011571,"INCLINATION":98.3786,"RA_OF_ASC_NODE":59.0322,"ARG_OF_PERICENTER":84.6132,"MEAN_ANOMALY":70.8389,"EPHEMERIS_TYPE":0,"CLASSIFICATION_TYPE":"U","NORAD_CAT_ID":27386,"ELEMENT_SET_NO":999,"REV_AT_EPOCH":26458,"BSTAR":2.6576891e-5,"MEAN_MOTION_DOT":3.9e-7,"MEAN_MOTION_DDOT":0},{"OBJECT_NAME":"IDEFIX & ARIANE 42P R/B","OBJECT_ID":"2002-021B","EPOCH":"2026-04-16T06:03:16.946208","MEAN_MOTION":14.31051133,"ECCENTRICITY":0.0013008,"INCLINATION":98.5911,"RA_OF_ASC_NODE":44.4197,"ARG_OF_PERICENTER":77.808,"MEAN_ANOMALY":282.4559,"EPHEMERIS_TYPE":0,"CLASSIFICATION_TYPE":"U","NORAD_CAT_ID":27422,"ELEMENT_SET_NO":999,"REV_AT_EPOCH":24939,"BSTAR":6.5907749e-5,"MEAN_MOTION_DOT":1.3e-6,"MEAN_MOTION_DDOT":0},{"OBJECT_NAME":"AQUA","OBJECT_ID":"2002-022A","EPOCH":"2026-04-16T06:22:21.775584","MEAN_MOTION":14.62060033,"ECCENTRICITY":0.00018202,"INCLINATION":98.4234,"RA_OF_ASC_NODE":74.3333,"ARG_OF_PERICENTER":106.0204,"MEAN_ANOMALY":357.3001,"EPHEMERIS_TYPE":0,"CLASSIFICATION_TYPE":"U","NORAD_CAT_ID":27424,"ELEMENT_SET_NO":999,"REV_AT_EPOCH":27422,"BSTAR":0.00010549153,"MEAN_MOTION_DOT":4.8e-6,"MEAN_MOTION_DDOT":0},{"OBJECT_NAME":"CZ-4B R/B","OBJECT_ID":"2002-024C","EPOCH":"2026-04-16T03:05:09.132288","MEAN_MOTION":14.14554219,"ECCENTRICITY":0.00490388,"INCLINATION":98.8763,"RA_OF_ASC_NODE":159.3328,"ARG_OF_PERICENTER":276.7733,"MEAN_ANOMALY":102.1024,"EPHEMERIS_TYPE":0,"CLASSIFICATION_TYPE":"U","NORAD_CAT_ID":27432,"ELEMENT_SET_NO":999,"REV_AT_EPOCH":23453,"BSTAR":3.2219303e-5,"MEAN_MOTION_DOT":1.8e-7,"MEAN_MOTION_DDOT":0},{"OBJECT_NAME":"MIDORI II (ADEOS-II)","OBJECT_ID":"2002-056A","EPOCH":"2026-04-16T02:46:49.779552","MEAN_MOTION":14.29313211,"ECCENTRICITY":3.085e-5,"INCLINATION":98.783,"RA_OF_ASC_NODE":64.8678,"ARG_OF_PERICENTER":142.5913,"MEAN_ANOMALY":217.529,"EPHEMERIS_TYPE":0,"CLASSIFICATION_TYPE":"U","NORAD_CAT_ID":27597,"ELEMENT_SET_NO":999,"REV_AT_EPOCH":21564,"BSTAR":7.3799839e-5,"MEAN_MOTION_DOT":1.42e-6,"MEAN_MOTION_DDOT":0},{"OBJECT_NAME":"H-2A R/B","OBJECT_ID":"2002-056E","EPOCH":"2026-04-16T04:08:57.443712","MEAN_MOTION":14.33787399,"ECCENTRICITY":0.00712192,"INCLINATION":98.3264,"RA_OF_ASC_NODE":65.1268,"ARG_OF_PERICENTER":50.5768,"MEAN_ANOMALY":320.649,"EPHEMERIS_TYPE":0,"CLASSIFICATION_TYPE":"U","NORAD_CAT_ID":27601,"ELEMENT_SET_NO":999,"REV_AT_EPOCH":21948,"BSTAR":7.7704033e-5,"MEAN_MOTION_DOT":1.81e-6,"MEAN_MOTION_DDOT":0},{"OBJECT_NAME":"CZ-4B R/B","OBJECT_ID":"2003-049C","EPOCH":"2026-04-16T06:34:51.661920","MEAN_MOTION":14.5505333,"ECCENTRICITY":0.00492019,"INCLINATION":98.6899,"RA_OF_ASC_NODE":102.6621,"ARG_OF_PERICENTER":116.4014,"MEAN_ANOMALY":244.2243,"EPHEMERIS_TYPE":0,"CLASSIFICATION_TYPE":"U","NORAD_CAT_ID":28059,"ELEMENT_SET_NO":999,"REV_AT_EPOCH":19206,"BSTAR":6.2094983e-5,"MEAN_MOTION_DOT":2.21e-6,"MEAN_MOTION_DDOT":0},{"OBJECT_NAME":"CZ-2C R/B","OBJECT_ID":"2004-012C","EPOCH":"2026-04-16T03:51:45.905472","MEAN_MOTION":15.69199738,"ECCENTRICITY":0.00139931,"INCLINATION":97.7154,"RA_OF_ASC_NODE":175.1253,"ARG_OF_PERICENTER":168.2345,"MEAN_ANOMALY":191.9245,"EPHEMERIS_TYPE":0,"CLASSIFICATION_TYPE":"U","NORAD_CAT_ID":28222,"ELEMENT_SET_NO":999,"REV_AT_EPOCH":21014,"BSTAR":0.00040981766,"MEAN_MOTION_DOT":0.00047901,"MEAN_MOTION_DDOT":0},{"OBJECT_NAME":"SL-16 R/B","OBJECT_ID":"2004-021B","EPOCH":"2026-04-16T01:49:33.145248","MEAN_MOTION":14.14605757,"ECCENTRICITY":0.00063522,"INCLINATION":71.0003,"RA_OF_ASC_NODE":154.0377,"ARG_OF_PERICENTER":321.2081,"MEAN_ANOMALY":38.8584,"EPHEMERIS_TYPE":0,"CLASSIFICATION_TYPE":"U","NORAD_CAT_ID":28353,"ELEMENT_SET_NO":999,"REV_AT_EPOCH":12812,"BSTAR":2.7421399e-5,"MEAN_MOTION_DOT":5.0e-8,"MEAN_MOTION_DDOT":0},{"OBJECT_NAME":"CZ-4B R/B","OBJECT_ID":"2004-035C","EPOCH":"2026-04-16T01:43:40.827648","MEAN_MOTION":15.29697135,"ECCENTRICITY":0.00313458,"INCLINATION":97.3437,"RA_OF_ASC_NODE":139.8706,"ARG_OF_PERICENTER":192.6434,"MEAN_ANOMALY":167.4024,"EPHEMERIS_TYPE":0,"CLASSIFICATION_TYPE":"U","NORAD_CAT_ID":28415,"ELEMENT_SET_NO":999,"REV_AT_EPOCH":18562,"BSTAR":0.00014499068,"MEAN_MOTION_DOT":4.154e-5,"MEAN_MOTION_DDOT":0},{"OBJECT_NAME":"CZ-2C R/B","OBJECT_ID":"2004-046B","EPOCH":"2026-04-16T05:00:45.662976","MEAN_MOTION":14.27007105,"ECCENTRICITY":0.01403446,"INCLINATION":98.1974,"RA_OF_ASC_NODE":18.8544,"ARG_OF_PERICENTER":44.305,"MEAN_ANOMALY":316.9264,"EPHEMERIS_TYPE":0,"CLASSIFICATION_TYPE":"U","NORAD_CAT_ID":28480,"ELEMENT_SET_NO":999,"REV_AT_EPOCH":11385,"BSTAR":5.2260361e-5,"MEAN_MOTION_DOT":1.01e-6,"MEAN_MOTION_DDOT":0},{"OBJECT_NAME":"ARIANE 5 R/B","OBJECT_ID":"2004-049H","EPOCH":"2026-04-16T05:21:45.754272","MEAN_MOTION":14.85337787,"ECCENTRICITY":0.00830995,"INCLINATION":98.2679,"RA_OF_ASC_NODE":276.0999,"ARG_OF_PERICENTER":228.8505,"MEAN_ANOMALY":130.5518,"EPHEMERIS_TYPE":0,"CLASSIFICATION_TYPE":"U","NORAD_CAT_ID":28499,"ELEMENT_SET_NO":999,"REV_AT_EPOCH":15136,"BSTAR":6.2505718e-5,"MEAN_MOTION_DOT":5.06e-6,"MEAN_MOTION_DDOT":0},{"OBJECT_NAME":"CZ-2D R/B","OBJECT_ID":"2005-024B","EPOCH":"2026-04-15T22:22:07.557888","MEAN_MOTION":15.63613697,"ECCENTRICITY":0.00031827,"INCLINATION":97.3545,"RA_OF_ASC_NODE":122.5373,"ARG_OF_PERICENTER":202.822,"MEAN_ANOMALY":157.2898,"EPHEMERIS_TYPE":0,"CLASSIFICATION_TYPE":"U","NORAD_CAT_ID":28738,"ELEMENT_SET_NO":999,"REV_AT_EPOCH":14559,"BSTAR":0.00031610186,"MEAN_MOTION_DOT":0.00029293,"MEAN_MOTION_DDOT":0}]
