HELIOS 1B               
1 25977U 99064A   26106.24241481  .00000809  00000+0  94909-4 0  9990
2 25977  98.1658   9.5838 0000776  39.4795 320.6477 14.87838545690848
TERRA                   
1 25994U 99068A   26106.24686003  .00000228  00000+0  55415-4 0  9990
2 25994  97.9518 158.2321 0003557  75.8381 353.3655 14.61053523400569
SL-16 R/B               
1 26070U 00006B   26106.17502151 -.00000213  00000+0 -83916-4 0  9996
2 26070  71.0045  19.0167 0014740 129.7710 230.4714 14.15828885353867
TITAN 4B R/B            
1 26474U 00047B   26106.26051741  .00001577  00000+0  10378-3 0  9996
2 26474  67.9868 294.8361 0041437 352.0404   8.0082 15.09869384398583
ENVISAT                 
1 27386U 02009A   26106.31595965  .00000039  00000+0  26577-4 0  9997
2 27386  98.3786  59.0322 0001157  84.6132  70.8389 14.39049682264584
IDEFIX & ARIANE 42P R/B 
1 27422U 02021B   26106.25227947  .00000130  00000+0  65908-4 0  9990
2 27422  98.5911  44.4197 0013008  77.8080 282.4559 14.31051133249397
AQUA                    
1 27424U 02022A   26106.26552981  .00000480  00000+0  10549-3 0  9991
2 27424  98.4234  74.3333 0001820 106.0204 357.3001 14.62060033274229
CZ-4B R/B               
1 27432U 02024C   26106.12857792  .00000018  00000+0  32219-4 0  9991
2 27432  98.8763 159.3328 0049038 276.7733 102.1024 14.14554219234534
MIDORI II (ADEOS-II)    
1 27597U 02056A   26106.11585393  .00000142  00000+0  73800-4 0  9991
2 27597  98.7830  64.8678 0000308 142.5913 217.5290 14.29313211215643
H-2A R/B                
1 27601U 02056E   26106.17288708  .00000181  00000+0  77704-4 0  9993
2 27601  98.3264  65.1268 0071219  50.5768 320.6490 14.33787399219481
CZ-4B R/B               
1 28059U 03049C   26106.27420905  .00000221  00000+0  62095-4 0  9994
2 28059  98.6899 102.6621 0049201 116.4014 244.2243 14.55053330192064
CZ-2C R/B               
1 28222U 04012C   26106.16094798  .00047901  00000+0  40982-3 0  9998
2 28222  97.7154 175.1253 0013993 168.2345 191.9245 15.69199738210146
SL-16 R/B               
1 28353U 04021B   26106.07607807  .00000005  00000+0  27421-4 0  9992
2 28353  71.0003 154.0377 0006352 321.2081  38.8584 14.14605757128124
CZ-4B R/B               
1 28415U 04035C   26106.07200032  .00004154  00000+0  14499-3 0  9994
2 28415  97.3437 139.8706 0031345 192.6434 167.4024 15.29697135185628
CZ-2C R/B               
1 28480U 04046B   26106.20886184  .00000101  00000+0  52260-4 0  9998
2 28480  98.1974  18.8544 0140344  44.3050 316.9264 14.27007105113850
ARIANE 5 R/B            
1 28499U 04049H   26106.22344623  .00000506  00000+0  62506-4 0  9993
2 28499  98.2679 276.0999 0083099 228.8505 130.5518 14.85337787151368
CZ-2D R/B               
1 28738U 05024B   26105.93203192  .00029293  00000+0  31610-3 0  9990
2 28738  97.3545 122.5373 0003182 202.8220 157.2898 15.63613697145597
